NORAD_CAT_ID,OBJECT_NAME,OBJECT_TYPE,EPOCH,MEAN_MOTION,ECCENTRICITY,INCLINATION,RA_OF_ASC_NODE,ARG_OF_PERICENTER,MEAN_ANOMALY,BSTAR,MEAN_MOTION_DOT,MEAN_MOTION_DDOT,TLE_LINE0,TLE_LINE1,TLE_LINE2,SEMIMAJOR_AXIS,PERIOD,APOGEE,PERIGEE,DECAYED
52306.0,STARLINK-3747,PAYLOAD,2022-07-01 22:00:00,15.73243839,0.000408,53.2152,22.2758,2.119,34.151,-0.00049021,-0.00069026,0.0,0 STARLINK-3747,1 52306U 22041AX  22182.91667824 -.00069026  00000-0 -49021-3 0  9997,2 52306  53.2152  22.2758 0004080   2.1190  34.1510 15.73243839  1300,6727.77,91.531,352.38,346.89,0.0
52306.0,STARLINK-3747,PAYLOAD,2022-07-02 14:00:01,15.73255281,0.0003742,53.2165,18.9711,1.7772,212.3473,-0.00071514,-0.00100087,0.0,0 STARLINK-3747,1 52306U 22041AX  22183.58334491 -.00100087  00000-0 -71514-3 0  9997,2 52306  53.2165  18.9711 0003742   1.7772 212.3473 15.73255281 12540,6727.738,91.53,352.12,347.085,0.0
52306.0,STARLINK-3747,PAYLOAD,2022-07-02 22:00:00,15.73116607,0.0004278,53.2173,17.3197,0.7565,302.3896,-0.0040786,-0.00536605,0.0,0 STARLINK-3747,1 52306U 22041AX  22183.91667824 -.00536605  00000-0 -40786-2 0  9998,2 52306  53.2173  17.3197 0004278   0.7565 302.3896 15.73116607  1303,6728.1330000000025,91.538,352.876,347.12,0.0
52306.0,STARLINK-3747,PAYLOAD,2022-07-03 14:00:01,15.72042303,0.0004011,53.2175,14.0147,1.9809,117.7648,-0.0087275,-0.01050535,0.0,0 STARLINK-3747,1 52306U 22041AX  22184.58334491 -.01050535  00000-0 -87275-2 0  9991,2 52306  53.2175  14.0147 0004011   1.9809 117.7648 15.72042303  1306,6731.198,91.601,355.76300000000015,350.36300000000006,0.0
52306.0,STARLINK-3747,PAYLOAD,2022-07-03 22:00:00,15.71283789,0.0004317,53.2174,12.3684,0.2209,206.5992,-0.009025,-0.01051817,0.0,0 STARLINK-3747,1 52306U 22041AX  22184.91667824 -.01051817  00000-0 -90250-2 0  9998,2 52306  53.2174  12.3684 0004317   0.2209 206.5992 15.71283789  1300,6733.364000000001,91.645,358.136,352.32199999999995,0.0
52306.0,STARLINK-3747,PAYLOAD,2022-07-04 06:00:00,15.70524447,0.0003534,53.2174,10.7201,354.3183,298.6665,-0.0093284,-0.01052272,0.0,0 STARLINK-3747,1 52306U 22041AX  22185.25001157 -.01052272  00000-0 -93284-2 0  9993,2 52306  53.2174  10.7201 0003534 354.3183 298.6665 15.70524447 12805,6735.534000000002,91.689,359.779,355.019,0.0
52306.0,STARLINK-3747,PAYLOAD,2022-07-04 14:00:01,15.69769051,0.0004558,53.2176,9.0752,340.0099,38.2237,-0.0096779,-0.01057568,0.0,0 STARLINK-3747,1 52306U 22041AX  22185.58334491 -.01057568  00000-0 -96779-2 0  9994,2 52306  53.2176   9.0752 0004558 340.0099  38.2237 15.69769051  1300,6737.695,91.733,362.631,356.48900000000015,0.0
52306.0,STARLINK-3747,PAYLOAD,2022-07-04 22:00:00,15.69013612,0.0001997,53.2176,7.4342,328.8948,133.6746,-0.010072,-0.01064306,0.0,0 STARLINK-3747,1 52306U 22041AX  22185.91667824 -.01064306  00000-0 -10072-1 0  9999,2 52306  53.2176   7.4342 0001997 328.8948 133.6746 15.69013612  1308,6739.857,91.777,363.068,360.376,0.0
52306.0,STARLINK-3747,PAYLOAD,2022-07-05 14:00:01,15.67487454,0.0001385999999999,53.2176,4.1524,47.1312,221.3797,-0.010585,-0.01051313,0.0,0 STARLINK-3747,1 52306U 22041AX  22186.58334491 -.01051313  00000-0 -10585-1 0  9997,2 52306  53.2176   4.1524 0001386  47.1312 221.3797 15.67487454  1300,6744.231,91.867,367.031,365.162,0.0
52306.0,STARLINK-3747,PAYLOAD,2022-07-05 22:00:00,15.66726888,0.0001189,53.2173,2.5168,51.5418,298.5686,-0.0109,-0.01049538,0.0,0 STARLINK-3747,1 52306U 22041AX  22186.91667824 -.01049538  00000-0 -10900-1 0  9990,2 52306  53.2173   2.5168 0001189  51.5418 298.5686 15.66726888  1309,6746.4140000000025,91.911,369.081,367.477,0.0
52306.0,STARLINK-3747,PAYLOAD,2022-07-06 14:00:01,15.6520731,0.0001447,53.2175,359.2461,51.4974,99.0763,-0.011573,-0.01048048,0.0,0 STARLINK-3747,1 52306U 22041AX  22187.58334491 -.01048048  00000-0 -11573-1 0  9997,2 52306  53.2175 359.2461 0001447  51.4974  99.0763 15.65207310  1305,6750.78,92.001,373.621,371.668,0.0
52306.0,STARLINK-3747,PAYLOAD,2022-07-06 22:00:00,15.64444802,0.0001411,53.2175,357.616,51.7834,177.6523,-0.011864,-0.01042614,0.0,0 STARLINK-3747,1 52306U 22041AX  22187.91667824 -.01042614  00000-0 -11864-1 0  9999,2 52306  53.2175 357.6160 0001411  51.7834 177.6523 15.64444802 13221,6752.973000000001,92.045,375.791,373.885,0.0
52306.0,STARLINK-3747,PAYLOAD,2022-07-07 12:21:31,15.6417805,0.0001222,53.2158,354.708,305.1254,54.9648,-0.0035709,-0.0033257,0.0,0 STARLINK-3747,1 52306U 22041AX  22188.51494640 -.00332570  00000-0 -35709-2 0  9997,2 52306  53.2158 354.7080 0001222 305.1254  54.9648 15.64178050 13328,6753.741,92.061,376.431,374.78,0.0
52306.0,STARLINK-3747,PAYLOAD,2022-07-07 22:00:00,15.62166114,0.0001501999999999,53.2173,352.7317,41.7018,58.8443,-0.012971,-0.01057731,0.0,0 STARLINK-3747,1 52306U 22041AX  22188.91667824 -.01057731  00000-0 -12971-1 0  9996,2 52306  53.2173 352.7317 0001502  41.7018  58.8443 15.62166114 13386,6759.538000000001,92.18,382.419,380.388,0.0
52306.0,STARLINK-3747,PAYLOAD,2022-07-08 14:00:01,15.6065021,0.0001366,53.2175,349.4836,56.0072,194.0486,-0.013829,-0.01062518,0.0,0 STARLINK-3747,1 52306U 22041AX  22189.58334491 -.01062518  00000-0 -13829-1 0  9993,2 52306  53.2175 349.4836 0001366  56.0072 194.0486 15.60650210 13488,6763.915,92.269,386.704,384.856,0.0
52306.0,STARLINK-3747,PAYLOAD,2022-07-08 22:00:01,15.59890003,0.0001132,53.2172,347.8641,59.1621,264.3441,-0.014211,-0.01060423,0.0,0 STARLINK-3747,1 52306U 22041AX  22189.91668981 -.01060423  00000-0 -14211-1 0  9993,2 52306  53.2172 347.8641 0001132  59.1621 264.3441 15.59890003  1300,6766.111999999999,92.314,388.74300000000005,387.211,0.0
52306.0,STARLINK-3747,PAYLOAD,2022-07-09 06:00:00,15.59130137,0.0001168,53.2174,346.2432,52.1217,343.7947,-0.014639,-0.01060938,0.0,0 STARLINK-3747,1 52306U 22041AX  22190.25001157 -.01060938  00000-0 -14639-1 0  9993,2 52306  53.2174 346.2432 0001168  52.1217 343.7947 15.59130137 13598,6768.31,92.359,390.966,389.385,0.0
52306.0,STARLINK-3747,PAYLOAD,2022-07-09 14:00:01,15.58371875,0.0001345,53.2175,344.6271,54.6404,52.8356,-0.015091,-0.01062437,0.0,0 STARLINK-3747,1 52306U 22041AX  22190.58334491 -.01062437  00000-0 -15091-1 0  9998,2 52306  53.2175 344.6271 0001345  54.6404  52.8356 15.58371875  1307,6770.505999999999,92.404,393.281,391.46,0.0
52306.0,STARLINK-3747,PAYLOAD,2022-07-09 20:00:01,15.57800886,0.0001196,53.2176,343.4167,62.2148,8.3327,-0.015385,-0.01060109,0.0,0 STARLINK-3747,1 52306U 22041AX  22190.83334491 -.01060109  00000-0 -15385-1 0  9996,2 52306  53.2176 343.4167 0001196  62.2148   8.3327 15.57800886  1305,6772.16,92.438,394.835,393.215,0.0
52306.0,STARLINK-3747,PAYLOAD,2022-07-10 06:00:00,15.56851064,0.0001361999999999,53.2175,341.3975,53.4001,194.4606,-0.015922,-0.01058707,0.0,0 STARLINK-3747,1 52306U 22041AX  22191.25001157 -.01058707  00000-0 -15922-1 0  9991,2 52306  53.2175 341.3975 0001362  53.4001 194.4606 15.56851064 13744,6774.9140000000025,92.494,397.702,395.856,0.0
52306.0,STARLINK-3747,PAYLOAD,2022-07-10 14:00:01,15.56093815,0.0001349,53.2176,339.7871,46.9897,269.6921,-0.016439,-0.01062175,0.0,0 STARLINK-3747,1 52306U 22041AX  22191.58334491 -.01062175  00000-0 -16439-1 0  9995,2 52306  53.2176 339.7871 0001349  46.9897 269.6921 15.56093815  1302,6777.111999999999,92.539,399.891,398.06300000000016,0.0
52306.0,STARLINK-3747,PAYLOAD,2022-07-10 22:00:00,15.55333976,0.0001175,53.2171,338.1782,53.6163,330.9751,-0.016881,-0.01060429,0.0,0 STARLINK-3747,1 52306U 22041AX  22191.91667824 -.01060429  00000-0 -16881-1 0  9992,2 52306  53.2171 338.1782 0001175  53.6163 330.9751 15.55333976 13859,6779.319,92.585,401.981,400.387,0.0
52306.0,STARLINK-3747,PAYLOAD,2022-07-11 06:00:00,15.55978586,0.0001177,53.2137,336.5851,34.3434,60.7481,0.0016295,0.00116503,0.0,0 STARLINK-3747,1 52306U 22041AX  22192.25001157  .00116503  00000-0  16295-2 0  9993,2 52306  53.2137 336.5851 0001177  34.3434  60.7481 15.55978586 13905,6777.446,92.546,400.109,398.514,0.0
52306.0,STARLINK-3747,PAYLOAD,2022-07-11 14:00:01,15.56039379,0.0001279,53.214,334.9782,37.2077,126.1794,-0.00011986,-8.978e-05,0.0,0 STARLINK-3747,1 52306U 22041AX  22192.58334491 -.00008978  00000-0 -11986-3 0  9990,2 52306  53.2140 334.9782 0001279  37.2077 126.1794 15.56039379  1306,6777.27,92.543,400.002,398.268,0.0
52306.0,STARLINK-3747,PAYLOAD,2022-07-11 22:00:00,15.56038898,0.0001438,53.2157,333.371,47.0252,184.6804,-0.009962,-0.00651877,0.0,0 STARLINK-3747,1 52306U 22041AX  22192.91667824 -.00651877  00000-0 -99620-2 0  9998,2 52306  53.2157 333.3710 0001438  47.0252 184.6804 15.56038898  1305,6777.271,92.543,400.111,398.162,0.0
52306.0,STARLINK-3747,PAYLOAD,2022-07-12 06:00:00,15.5566044,0.0001314,53.2172,331.76,44.37,255.3567,-0.016681,-0.01060676,0.0,0 STARLINK-3747,1 52306U 22041AX  22193.25001157 -.01060676  00000-0 -16681-1 0  9994,2 52306  53.2172 331.7600 0001314  44.3700 255.3567 15.55660440 14054,6778.37,92.565,401.126,399.345,0.0
52306.0,STARLINK-3747,PAYLOAD,2022-07-12 14:00:01,15.54901992,0.0001453999999999,53.2174,330.1526,39.9766,327.1392,-0.017192,-0.01062678,0.0,0 STARLINK-3747,1 52306U 22041AX  22193.58334491 -.01062678  00000-0 -17192-1 0  9992,2 52306  53.2174 330.1526 0001454  39.9766 327.1392 15.54901992  1300,6780.575,92.61,403.425,401.454,0.0
52306.0,STARLINK-3747,PAYLOAD,2022-07-12 22:00:00,15.54141646,0.0001386999999999,53.2171,328.5462,45.0531,28.5402,-0.017639,-0.01060357,0.0,0 STARLINK-3747,1 52306U 22041AX  22193.91667824 -.01060357  00000-0 -17639-1 0  9996,2 52306  53.2171 328.5462 0001387  45.0531  28.5402 15.54141646  1306,6782.786,92.656,405.592,403.71,0.0
52306.0,STARLINK-3747,PAYLOAD,2022-07-13 14:00:01,15.52619629,0.0001754,53.2175,325.3376,40.3029,163.5088,-0.018561,-0.01055923,0.0,0 STARLINK-3747,1 52306U 22041AX  22194.58334491 -.01055923  00000-0 -18561-1 0  9999,2 52306  53.2175 325.3376 0001754  40.3029 163.5088 15.52619629 14265,6787.218000000003,92.746,410.273,407.892,0.0
